0 ARIANE 5 R/B
1 32254U 07044C   13281.99523981  .00000838  00000-0  11209-2 0  3035
2 32254 004.5653 268.6841 7102547 298.5576 012.3695 02.45344980 53715
0 ARIANE 5 R/B
1 32254U 07044C   13284.03319133  .00000939  00000-0  12614-2 0  3049
2 32254 004.5608 267.8092 7102724 300.3316 012.3634 02.45348548 53767
0 ARIANE 5 R/B
1 32254U 07044C   13286.07658809  .00000630  00000-0  12009-2 0  3058
2 32254 004.5563 266.9298 7102962 302.1128 017.1977 02.45352294 53812
0 ARIANE 5 R/B
1 32254U 07044C   13288.11879888  .00000562  00000-0  14523-2 0  3065
2 32254 004.5518 266.0520 7103149 303.8925 021.0089 02.45357594 53863
0 ARIANE 5 R/B
1 32254U 07044C   13290.14095834  .00000003  00000-0  33181-5 0  3077
2 32254 004.5981 264.8649 7105686 305.9675 007.1586 02.45362582 53903
0 ARIANE 5 R/B
1 32254U 07044C   13290.35054766  .00000534  00000-0  15024-2 0  3071
2 32254 004.5468 265.0944 7103316 305.8365 192.2757 02.45363765 53918
0 ARIANE 5 R/B
1 32254U 07044C   13291.63201231  .00000560  00000-0  14362-2 0  3088
2 32254 004.5439 264.5430 7103395 306.9556 244.1928 02.45366799 53952
0 ARIANE 5 R/B
1 32254U 07044C   13293.65527228  .00000764  00000-0  14256-2 0  3098
2 32254 004.5392 263.6732 7103446 308.7200 231.3704 02.45372273 54009
0 ARIANE 5 R/B
1 32254U 07044C   13295.84814977  .00000943  00000-0  14018-2 0  3108
2 32254 004.5341 262.7254 7103513 310.6359 008.4208 02.45378371 54056
